{"type": "FeatureCollection", "features": [ {"type": "Feature", "properties": {"norad_id": 38552, "name": "METEOSAT-10 (MSG-3)", "group": "weather", "lat": 3.708231802280116, "lon": -178.7260298152089, "alt_km": 35786.61590326769, "timestamp": "2025-12-24T05:51:19.248687+00:00", "meta": {"OBJECT_NAME": "METEOSAT-10 (MSG-3)", "OBJECT_ID": "2012-035B", "EPOCH": "2025-12-23T01:08:58.915968", "MEAN_MOTION": 1.0027689, "ECCENTRICITY": 7.313e-05, "INCLINATION": 4.2513, "RA_OF_ASC_NODE": 61.6947, "ARG_OF_PERICENTER": 264.0711, "MEAN_ANOMALY": 143.6614, "EPHEMERIS_TYPE": 0, "CLASSIFICATION_TYPE": "U", "NORAD_CAT_ID": 38552, "ELEMENT_SET_NO": 999, "REV_AT_EPOCH": 4909, "BSTAR": 0, "MEAN_MOTION_DOT": 1.6e-07, "MEAN_MOTION_DDOT": 0}, "tle": {"line1": "1 38552U 12035B   25357.04790412  .00000016  00000+0  00000+0 0  9998", "line2": "2 38552   4.2513  61.6947 0000731 264.0711 143.6614  1.00276890 49095"}}, "geometry": {"type": "Point", "coordinates": [-178.7260298152089, 3.708231802280116]}}, {"type": "Feature", "properties": {"norad_id": 38771, "name": "METOP-B", "group": "weather", "lat": -61.461490581918795, "lon": -148.30384948257307, "alt_km": 828.9824461574335, "timestamp": "2025-12-24T05:51:19.248698+00:00", "meta": {"OBJECT_NAME": "METOP-B", "OBJECT_ID": "2012-049A", "EPOCH": "2025-12-23T23:38:57.267456", "MEAN_MOTION": 14.21412526, "ECCENTRICITY": 0.00032514, "INCLINATION": 98.6783, "RA_OF_ASC_NODE": 47.7527, "ARG_OF_PERICENTER": 120.5917, "MEAN_ANOMALY": 239.5581, "EPHEMERIS_TYPE": 0, "CLASSIFICATION_TYPE": "U", "NORAD_CAT_ID": 38771, "ELEMENT_SET_NO": 999, "REV_AT_EPOCH": 68837, "BSTAR": 7.8928453e-05, "MEAN_MOTION_DOT": 1.29e-06, "MEAN_MOTION_DDOT": 0}, "tle": {"line1": "1 38771U 12049A   25357.98538504  .00000129  00000+0  78928-4 0  9995", "line2": "2 38771  98.6783  47.7527 0003251 120.5917 239.5581 14.21412526688370"}}, "geometry": {"type": "Point", "coordinates": [-148.30384948257307, -61.461490581918795]}}, {"type": "Feature", "properties": {"norad_id": 39216, "name": "INSAT-3D", "group": "weather", "lat": -1.071120473592317, "lon": -49.610436491248684, "alt_km": 35782.70219540284, "timestamp": "2025-12-24T05:51:19.248710+00:00", "meta": {"OBJECT_NAME": "INSAT-3D", "OBJECT_ID": "2013-038B", "EPOCH": "2025-12-23T20:35:46.548096", "MEAN_MOTION": 1.00275086, "ECCENTRICITY": 0.00018678, "INCLINATION": 1.4718, "RA_OF_ASC_NODE": 84.8718, "ARG_OF_PERICENTER": 154.9111, "MEAN_ANOMALY": 291.3295, "EPHEMERIS_TYPE": 0, "CLASSIFICATION_TYPE": "U", "NORAD_CAT_ID": 39216, "ELEMENT_SET_NO": 999, "REV_AT_EPOCH": 4532, "BSTAR": 0, "MEAN_MOTION_DOT": -3.18e-06, "MEAN_MOTION_DDOT": 0}, "tle": {"line1": "1 39216U 13038B   25357.85817764 -.00000318  00000+0  00000+0 0  9995", "line2": "2 39216   1.4718  84.8718 0001867 154.9111 291.3295  1.00275086 45328"}}, "geometry": {"type": "Point", "coordinates": [-49.610436491248684, -1.071120473592317]}}, {"type": "Feature", "properties": {"norad_id": 39260, "name": "FENGYUN 3C", "group": "weather", "lat": -71.38301037657742, "lon": 129.08286074436236, "alt_km": 847.2900383364831, "timestamp": "2025-12-24T05:51:19.248722+00:00", "meta": {"OBJECT_NAME": "FENGYUN 3C", "OBJECT_ID": "2013-052A", "EPOCH": "2025-12-23T21:52:42.131136", "MEAN_MOTION": 14.15699532, "ECCENTRICITY": 0.00149001, "INCLINATION": 98.4777, "RA_OF_ASC_NODE": 335.0461, "ARG_OF_PERICENTER": 163.7556, "MEAN_ANOMALY": 196.41, "EPHEMERIS_TYPE": 0, "CLASSIFICATION_TYPE": "U", "NORAD_CAT_ID": 39260, "ELEMENT_SET_NO": 999, "REV_AT_EPOCH": 63376, "BSTAR": 7.7158383e-05, "MEAN_MOTION_DOT": 1.1e-06, "MEAN_MOTION_DDOT": 0}, "tle": {"line1": "1 39260U 13052A   25357.91159874  .00000110  00000+0  77158-4 0  9990", "line2": "2 39260  98.4777 335.0461 0014900 163.7556 196.4100 14.15699532633764"}}, "geometry": {"type": "Point", "coordinates": [129.08286074436236, -71.38301037657742]}}, {"type": "Feature", "properties": {"norad_id": 40069, "name": "METEOR-M 2", "group": "weather", "lat": 68.46824339066517, "lon": 177.63683122626034, "alt_km": 812.2056039853087, "timestamp": "2025-12-24T05:51:19.248733+00:00", "meta": {"OBJECT_NAME": "METEOR-M 2", "OBJECT_ID": "2014-037A", "EPOCH": "2025-12-23T22:34:56.944704", "MEAN_MOTION": 14.21389867, "ECCENTRICITY": 0.00055913, "INCLINATION": 98.4913, "RA_OF_ASC_NODE": 335.0962, "ARG_OF_PERICENTER": 174.6174, "MEAN_ANOMALY": 185.5065, "EPHEMERIS_TYPE": 0, "CLASSIFICATION_TYPE": "U", "NORAD_CAT_ID": 40069, "ELEMENT_SET_NO": 999, "REV_AT_EPOCH": 59442, "BSTAR": 1.2530666e-05, "MEAN_MOTION_DOT": -1.5e-07, "MEAN_MOTION_DDOT": 0}, "tle": {"line1": "1 40069U 14037A   25357.94093686 -.00000015  00000+0  12531-4 0  9993", "line2": "2 40069  98.4913 335.0962 0005591 174.6174 185.5065 14.21389867594426"}}, "geometry": {"type": "Point", "coordinates": [177.63683122626034, 68.46824339066517]}}, {"type": "Feature", "properties": {"norad_id": 40267, "name": "HIMAWARI-8", "group": "weather", "lat": 0.011252498334463727, "lon": -38.48319253933117, "alt_km": 35782.619261552, "timestamp": "2025-12-24T05:51:19.248745+00:00", "meta": {"OBJECT_NAME": "HIMAWARI-8", "OBJECT_ID": "2014-060A", "EPOCH": "2025-12-23T20:38:53.749248", "MEAN_MOTION": 1.00271877, "ECCENTRICITY": 8.625e-05, "INCLINATION": 0.0448, "RA_OF_ASC_NODE": 209.3766, "ARG_OF_PERICENTER": 95.0712, "MEAN_ANOMALY": 238.5881, "EPHEMERIS_TYPE": 0, "CLASSIFICATION_TYPE": "U", "NORAD_CAT_ID": 40267, "ELEMENT_SET_NO": 999, "REV_AT_EPOCH": 4100, "BSTAR": 0, "MEAN_MOTION_DOT": -2.54e-06, "MEAN_MOTION_DDOT": 0}, "tle": {"line1": "1 40267U 14060A   25357.86034432 -.00000254  00000+0  00000+0 0  9992", "line2": "2 40267   0.0448 209.3766 0000862  95.0712 238.5881  1.00271877 41003"}}, "geometry": {"type": "Point", "coordinates": [-38.48319253933117, 0.011252498334463727]}}, {"type": "Feature", "properties": {"norad_id": 40367, "name": "FENGYUN 2G", "group": "weather", "lat": -2.2226165827667184, "lon": -80.02897356255879, "alt_km": 35776.93615419358, "timestamp": "2025-12-24T05:51:19.248758+00:00", "meta": {"OBJECT_NAME": "FENGYUN 2G", "OBJECT_ID": "2014-090A", "EPOCH": "2025-12-23T18:44:19.570848", "MEAN_MOTION": 1.00283037, "ECCENTRICITY": 0.00017935, "INCLINATION": 5.1935, "RA_OF_ASC_NODE": 74.9603, "ARG_OF_PERICENTER": 171.7462, "MEAN_ANOMALY": 226.1214, "EPHEMERIS_TYPE": 0, "CLASSIFICATION_TYPE": "U", "NORAD_CAT_ID": 40367, "ELEMENT_SET_NO": 999, "REV_AT_EPOCH": 4024, "BSTAR": 0, "MEAN_MOTION_DOT": -2.82e-06, "MEAN_MOTION_DDOT": 0}, "tle": {"line1": "1 40367U 14090A   25357.78078207 -.00000282  00000+0  00000+0 0  9996", "line2": "2 40367   5.1935  74.9603 0001793 171.7462 226.1214  1.00283037 40244"}}, "geometry": {"type": "Point", "coordinates": [-80.02897356255879, -2.2226165827667184]}}, {"type": "Feature", "properties": {"norad_id": 40732, "name": "METEOSAT-11 (MSG-4)", "group": "weather", "lat": 2.4426002623923604, "lon": -169.94159705212397, "alt_km": 35783.02783373054, "timestamp": "2025-12-24T05:51:19.248770+00:00", "meta": {"OBJECT_NAME": "METEOSAT-11 (MSG-4)", "OBJECT_ID": "2015-034A", "EPOCH": "2025-12-23T21:44:09.996864", "MEAN_MOTION": 1.00270988, "ECCENTRICITY": 7.404e-05, "INCLINATION": 2.7643, "RA_OF_ASC_NODE": 71.9712, "ARG_OF_PERICENTER": 137.19, "MEAN_ANOMALY": 218.7543, "EPHEMERIS_TYPE": 0, "CLASSIFICATION_TYPE": "U", "NORAD_CAT_ID": 40732, "ELEMENT_SET_NO": 999, "REV_AT_EPOCH": 545, "BSTAR": 0, "MEAN_MOTION_DOT": 8.1e-07, "MEAN_MOTION_DDOT": 0}, "tle": {"line1": "1 40732U 15034A   25357.90567126  .00000081  00000+0  00000+0 0  9994", "line2": "2 40732   2.7643  71.9712 0000740 137.1900 218.7543  1.00270988  5458"}}, "geometry": {"type": "Point", "coordinates": [-169.94159705212397, 2.4426002623923604]}}, {"type": "Feature", "properties": {"norad_id": 41105, "name": "ELEKTRO-L 2", "group": "weather", "lat": 6.253662777022326, "lon": 166.36840706621146, "alt_km": 35791.388724079734, "timestamp": "2025-12-24T05:51:19.248782+00:00", "meta": {"OBJECT_NAME": "ELEKTRO-L 2", "OBJECT_ID": "2015-074A", "EPOCH": "2025-12-23T21:37:25.643136", "MEAN_MOTION": 1.00272258, "ECCENTRICITY": 0.00035137, "INCLINATION": 6.2519, "RA_OF_ASC_NODE": 72.6954, "ARG_OF_PERICENTER": 208.5036, "MEAN_ANOMALY": 121.373, "EPHEMERIS_TYPE": 0, "CLASSIFICATION_TYPE": "U", "NORAD_CAT_ID": 41105, "ELEMENT_SET_NO": 999, "REV_AT_EPOCH": 3674, "BSTAR": 0, "MEAN_MOTION_DOT": -9.8e-07, "MEAN_MOTION_DDOT": 0}, "tle": {"line1": "1 41105U 15074A   25357.90099124 -.00000098  00000+0  00000+0 0  9990", "line2": "2 41105   6.2519  72.6954 0003513 208.5036 121.3730  1.00272258 36749"}}, "geometry": {"type": "Point", "coordinates": [166.36840706621146, 6.253662777022326]}}, {"type": "Feature", "properties": {"norad_id": 41752, "name": "INSAT-3DR", "group": "weather", "lat": 0.004081902238127569, "lon": -105.21298500322163, "alt_km": 35728.513798114574, "timestamp": "2025-12-24T05:51:19.248794+00:00", "meta": {"OBJECT_NAME": "INSAT-3DR", "OBJECT_ID": "2016-054A", "EPOCH": "2025-12-23T22:02:38.228928", "MEAN_MOTION": 1.00271452, "ECCENTRICITY": 0.00142402, "INCLINATION": 0.1182, "RA_OF_ASC_NODE": 86.24, "ARG_OF_PERICENTER": 185.6045, "MEAN_ANOMALY": 225.5056, "EPHEMERIS_TYPE": 0, "CLASSIFICATION_TYPE": "U", "NORAD_CAT_ID": 41752, "ELEMENT_SET_NO": 999, "REV_AT_EPOCH": 3406, "BSTAR": 0, "MEAN_MOTION_DOT": -5.6e-07, "MEAN_MOTION_DDOT": 0}, "tle": {"line1": "1 41752U 16054A   25357.91849802 -.00000056  00000+0  00000+0 0  9998", "line2": "2 41752   0.1182  86.2400 0014240 185.6045 225.5056  1.00271452 34063"}}, "geometry": {"type": "Point", "coordinates": [-105.21298500322163, 0.004081902238127569]}}]}